STARLINK-30871          
1 58228U 23170Y   26068.66614276  .00000035  00000+0  10800-4 0  9998
2 58228  43.0010 194.5306 0001850 276.5002  83.5639 15.27573938130298
FLOCK 4G-11             
1 62629U 25009W   26068.45629261  .00012672  00000+0  47740-3 0  9990
2 62629  97.3964 150.6183 0001611 333.5407  26.5750 15.27220677 63680
